OBJECT_NAME,OBJECT_ID,EPOCH,MEAN_MOTION,ECCENTRICITY,INCLINATION,RA_OF_ASC_NODE,ARG_OF_PERICENTER,MEAN_ANOMALY,EPHEMERIS_TYPE,CLASSIFICATION_TYPE,NORAD_CAT_ID,ELEMENT_SET_NO,REV_AT_EPOCH,BSTAR,MEAN_MOTION_DOT,MEAN_MOTION_DDOT
GOMX-1,2013-066Q,2026-06-09T11:47:30.633792,14.69431192,.0130156,97.6494,1.4397,101.9869,259.5961,0,U,39430,999,66878,.27315E-3,.1791E-4,0
CUBEBUG-2 (LO-74),2013-066AA,2026-06-09T10:14:19.891104,14.93700352,.0059152,97.8902,109.3723,54.2261,306.4438,0,U,39440,999,67583,.31222E-3,.3357E-4,0
NEE-02 KRYSAOR,2013-066AB,2026-06-09T08:01:04.988064,14.86584933,.0067737,97.8886,99.6051,95.3375,265.5574,0,U,39441,999,67503,.20357E-3,.1823E-4,0
FUNCUBE-1 (AO-73),2013-066AE,2026-06-09T10:23:34.623168,15.09396559,.0034858,97.8268,131.7174,227.8994,131.9269,0,U,39444,999,67849,.30669E-3,.4901E-4,0
UWE-3,2013-066AG,2026-06-09T03:04:03.741312,14.96959057,.00487694,97.8686,116.1479,348.2293,11.7784,0,U,39446,999,67637,.30256314E-3,.3499E-4,0
SMDC ONE 2.4,2013-072H,2026-06-09T07:10:25.875840,15.18033237,.0144186,120.4934,321.6312,10.6177,349.7893,0,U,39469,999,11663,.303E-3,.7746E-4,0
COSMOS 2488 (RODNIK-S 7),2013-076A,2026-06-09T11:18:32.587200,12.42905515,.0020764,82.4834,173.5025,111.2190,249.1111,0,U,39483,999,56493,.25532E-3,.45E-6,0
COSMOS 2489 (RODNIK-S 8),2013-076B,2026-06-09T12:38:30.808608,12.42879438,.002259,82.4871,174.8441,111.1267,249.2230,0,U,39484,999,56499,.25263E-3,.45E-6,0
COSMOS 2490 (RODNIK-S 9),2013-076C,2026-06-09T11:58:01.022016,12.42877816,.0022566,82.4817,172.9324,126.1377,234.1795,0,U,39485,999,56492,.21118E-3,.39E-6,0
KAZEOSAT 1,2014-024A,2026-06-09T11:00:37.054944,14.42077269,.0001455,98.3202,233.0981,75.1835,284.9516,0,U,39731,999,63744,.57516E-4,.146E-5,0
COSMOS 2496 (RODNIK-S 10),2014-028A,2026-06-09T12:52:47.426592,12.42878518,.0021263,82.4444,113.5227,94.6084,265.7425,0,U,39761,999,54656,.5607E-3,.88E-6,0
COSMOS 2497 (RODNIK-S 11),2014-028B,2026-06-09T12:17:20.099616,12.42894084,.0021855,82.4492,115.2250,89.9308,270.4276,0,U,39762,999,54656,.47213E-3,.75E-6,0
COSMOS 2498 (RODNIK-S 12),2014-028C,2026-06-09T11:45:50.775264,12.42980076,.0022544,82.4453,113.7291,89.6085,270.7578,0,U,39763,999,54659,.38957E-3,.64E-6,0
HODOYOSHI-4,2014-033B,2026-06-09T12:04:32.117664,14.88109026,.0023156,97.5458,345.6968,334.8485,25.1603,0,U,40011,999,64766,.52195E-4,.43E-5,0
UNISAT-6,2014-033C,2026-06-09T09:37:45.642144,14.88204190,.0046432,97.7869,313.2514,94.2161,266.4364,0,U,40012,999,64500,.26157E-3,.2405E-4,0
DEIMOS-2,2014-033D,2026-06-09T13:06:52.010784,14.93709135,.0002022,97.5841,35.3034,61.0326,299.1097,0,U,40013,999,63658,.19406E-3,.1999E-4,0
BUGSAT-1 (TITA),2014-033E,2026-06-09T12:13:36.015168,15.15502539,.0027459,98.0418,252.6096,204.5639,155.4286,0,U,40014,999,65467,.23719E-3,.4457E-4,0
SAUDISAT 4,2014-033G,2026-06-09T09:49:02.112672,14.79533907,.004623,97.7574,306.8134,98.5110,262.1345,0,U,40016,999,64492,.95158E-4,.673E-5,0
APRIZESAT 9,2014-033J,2026-06-09T08:01:11.294400,14.74203919,.0065171,97.9050,293.7252,224.6876,134.9071,0,U,40018,999,64240,.94845E-4,.594E-5,0
BRITE-CA1 (TORONTO),2014-033L,2026-06-09T08:38:27.659904,14.72665836,.0077422,97.9729,289.4327,302.5173,56.8569,0,U,40020,999,64106,.10079E-3,.618E-5,0
DUCHIFAT-1,2014-033M,2026-06-09T09:46:15.376224,15.63050538,.0004339,98.0469,218.4842,129.4692,230.6949,0,U,40021,999,65453,.99932E-3,.91547E-3,0
NANOSATC-BR1,2014-033Q,2026-06-09T00:53:52.251648,15.31195370,.00035439,98.0734,191.7047,185.9906,174.1292,0,U,40024,999,65273,.49565966E-3,.14864E-3,0
